{"type": "FeatureCollection", "features": [ {"type": "Feature", "properties": {"norad_id": 66623, "name": "STARLINK-35920", "group": "last-30-days", "lat": -43.402707088367855, "lon": 104.73834922480161, "alt_km": 452.31487120416386, "timestamp": "2025-12-20T14:38:00.687648+00:00", "meta": {"OBJECT_NAME": "STARLINK-35920", "OBJECT_ID": "2025-271G", "EPOCH": "2025-12-20T00:00:02.000160", "MEAN_MOTION": 15.39609547, "ECCENTRICITY": 0.0001114, "INCLINATION": 53.1601, "RA_OF_ASC_NODE": 152.7686, "ARG_OF_PERICENTER": 79.6665, "MEAN_ANOMALY": 79.9296, "EPHEMERIS_TYPE": 0, "CLASSIFICATION_TYPE": "U", "NORAD_CAT_ID": 66623, "ELEMENT_SET_NO": 999, "REV_AT_EPOCH": 541, "BSTAR": 0.00041204, "MEAN_MOTION_DOT": 0.00016111, "MEAN_MOTION_DDOT": 0}, "tle": {"line1": "1 66623U 25271G   25354.00002315  .00016111  00000+0  41204-3 0  9993", "line2": "2 66623  53.1601 152.7686 0001114  79.6665  79.9296 15.39609547  5413"}}, "geometry": {"type": "Point", "coordinates": [104.73834922480161, -43.402707088367855]}}, {"type": "Feature", "properties": {"norad_id": 66624, "name": "STARLINK-35927", "group": "last-30-days", "lat": 53.10976764256967, "lon": -123.05660654562153, "alt_km": 420.80523024711783, "timestamp": "2025-12-20T14:38:00.687658+00:00", "meta": {"OBJECT_NAME": "STARLINK-35927", "OBJECT_ID": "2025-271H", "EPOCH": "2025-12-19T22:44:25.582848", "MEAN_MOTION": 15.46532201, "ECCENTRICITY": 8.49e-05, "INCLINATION": 53.159, "RA_OF_ASC_NODE": 152.7553, "ARG_OF_PERICENTER": 106.2501, "MEAN_ANOMALY": 253.86, "EPHEMERIS_TYPE": 0, "CLASSIFICATION_TYPE": "U", "NORAD_CAT_ID": 66624, "ELEMENT_SET_NO": 999, "REV_AT_EPOCH": 532, "BSTAR": -0.0084107, "MEAN_MOTION_DOT": -0.00403682, "MEAN_MOTION_DDOT": 0}, "tle": {"line1": "1 66624U 25271H   25353.94751832 -.00403682  00000+0 -84107-2 0  9994", "line2": "2 66624  53.1590 152.7553 0000849 106.2501 253.8600 15.46532201  5326"}}, "geometry": {"type": "Point", "coordinates": [-123.05660654562153, 53.10976764256967]}}, {"type": "Feature", "properties": {"norad_id": 66625, "name": "STARLINK-35929", "group": "last-30-days", "lat": 33.649810998657955, "lon": 179.6282193875308, "alt_km": 442.59291384597964, "timestamp": "2025-12-20T14:38:00.687669+00:00", "meta": {"OBJECT_NAME": "STARLINK-35929", "OBJECT_ID": "2025-271J", "EPOCH": "2025-12-20T06:00:02.999808", "MEAN_MOTION": 15.39588721, "ECCENTRICITY": 8.216e-05, "INCLINATION": 53.1591, "RA_OF_ASC_NODE": 151.3853, "ARG_OF_PERICENTER": 88.3039, "MEAN_ANOMALY": 120.8369, "EPHEMERIS_TYPE": 0, "CLASSIFICATION_TYPE": "U", "NORAD_CAT_ID": 66625, "ELEMENT_SET_NO": 999, "REV_AT_EPOCH": 545, "BSTAR": 0.0012518636, "MEAN_MOTION_DOT": 0.00049951, "MEAN_MOTION_DDOT": 0}, "tle": {"line1": "1 66625U 25271J   25354.25003472  .00049951  00000+0  12519-2 0  9991", "line2": "2 66625  53.1591 151.3853 0000821  88.3039 120.8369 15.39588721  5451"}}, "geometry": {"type": "Point", "coordinates": [179.6282193875308, 33.649810998657955]}}, {"type": "Feature", "properties": {"norad_id": 66626, "name": "STARLINK-35902", "group": "last-30-days", "lat": -26.173010555912356, "lon": 128.22241373888104, "alt_km": 451.2473013792005, "timestamp": "2025-12-20T14:38:00.687682+00:00", "meta": {"OBJECT_NAME": "STARLINK-35902", "OBJECT_ID": "2025-271K", "EPOCH": "2025-12-20T06:00:02.999808", "MEAN_MOTION": 15.39594692, "ECCENTRICITY": 0.00013134, "INCLINATION": 53.1601, "RA_OF_ASC_NODE": 151.5388, "ARG_OF_PERICENTER": 87.443, "MEAN_ANOMALY": 44.4279, "EPHEMERIS_TYPE": 0, "CLASSIFICATION_TYPE": "U", "NORAD_CAT_ID": 66626, "ELEMENT_SET_NO": 999, "REV_AT_EPOCH": 545, "BSTAR": 0.0012736818, "MEAN_MOTION_DOT": 0.00050844, "MEAN_MOTION_DDOT": 0}, "tle": {"line1": "1 66626U 25271K   25354.25003472  .00050844  00000+0  12737-2 0  9997", "line2": "2 66626  53.1601 151.5388 0001313  87.4430  44.4279 15.39594692  5456"}}, "geometry": {"type": "Point", "coordinates": [128.22241373888104, -26.173010555912356]}}, {"type": "Feature", "properties": {"norad_id": 66627, "name": "STARLINK-35904", "group": "last-30-days", "lat": 14.346151421291895, "lon": 160.79566490140172, "alt_km": 445.86688749522364, "timestamp": "2025-12-20T14:38:00.687692+00:00", "meta": {"OBJECT_NAME": "STARLINK-35904", "OBJECT_ID": "2025-271L", "EPOCH": "2025-12-20T06:00:02.999808", "MEAN_MOTION": 15.39590441, "ECCENTRICITY": 7.967e-05, "INCLINATION": 53.1591, "RA_OF_ASC_NODE": 151.4361, "ARG_OF_PERICENTER": 85.7841, "MEAN_ANOMALY": 97.5885, "EPHEMERIS_TYPE": 0, "CLASSIFICATION_TYPE": "U", "NORAD_CAT_ID": 66627, "ELEMENT_SET_NO": 999, "REV_AT_EPOCH": 529, "BSTAR": 0.0012510223, "MEAN_MOTION_DOT": 0.0004992, "MEAN_MOTION_DDOT": 0}, "tle": {"line1": "1 66627U 25271L   25354.25003472  .00049920  00000+0  12510-2 0  9990", "line2": "2 66627  53.1591 151.4361 0000796  85.7841  97.5885 15.39590441  5298"}}, "geometry": {"type": "Point", "coordinates": [160.79566490140172, 14.346151421291895]}}, {"type": "Feature", "properties": {"norad_id": 66628, "name": "STARLINK-35862", "group": "last-30-days", "lat": 52.392829600374014, "lon": -107.15045044772849, "alt_km": 420.0111887967041, "timestamp": "2025-12-20T14:38:00.687702+00:00", "meta": {"OBJECT_NAME": "STARLINK-35862", "OBJECT_ID": "2025-271M", "EPOCH": "2025-12-19T22:41:57.757632", "MEAN_MOTION": 15.46540943, "ECCENTRICITY": 0.0002224, "INCLINATION": 53.1592, "RA_OF_ASC_NODE": 152.7424, "ARG_OF_PERICENTER": 62.1747, "MEAN_ANOMALY": 297.9486, "EPHEMERIS_TYPE": 0, "CLASSIFICATION_TYPE": "U", "NORAD_CAT_ID": 66628, "ELEMENT_SET_NO": 999, "REV_AT_EPOCH": 532, "BSTAR": -0.0077533, "MEAN_MOTION_DOT": -0.00373781, "MEAN_MOTION_DDOT": 0}, "tle": {"line1": "1 66628U 25271M   25353.94580738 -.00373781  00000+0 -77533-2 0  9994", "line2": "2 66628  53.1592 152.7424 0002224  62.1747 297.9486 15.46540943  5323"}}, "geometry": {"type": "Point", "coordinates": [-107.15045044772849, 52.392829600374014]}}, {"type": "Feature", "properties": {"norad_id": 66629, "name": "STARLINK-35956", "group": "last-30-days", "lat": 47.38120693607677, "lon": -85.01804657866897, "alt_km": 411.53653165425385, "timestamp": "2025-12-20T14:38:00.687715+00:00", "meta": {"OBJECT_NAME": "STARLINK-35956", "OBJECT_ID": "2025-271N", "EPOCH": "2025-12-18T16:00:00.999936", "MEAN_MOTION": 15.49463337, "ECCENTRICITY": 5.424e-05, "INCLINATION": 53.1591, "RA_OF_ASC_NODE": 158.846, "ARG_OF_PERICENTER": 63.7637, "MEAN_ANOMALY": 4.4961, "EPHEMERIS_TYPE": 0, "CLASSIFICATION_TYPE": "U", "NORAD_CAT_ID": 66629, "ELEMENT_SET_NO": 999, "REV_AT_EPOCH": 519, "BSTAR": 0.0002238515, "MEAN_MOTION_DOT": 0.00012088, "MEAN_MOTION_DDOT": 0}, "tle": {"line1": "1 66629U 25271N   25352.66667824  .00012088  00000+0  22385-3 0  9999", "line2": "2 66629  53.1591 158.8460 0000542  63.7637   4.4961 15.49463337  5194"}}, "geometry": {"type": "Point", "coordinates": [-85.01804657866897, 47.38120693607677]}}, {"type": "Feature", "properties": {"norad_id": 66630, "name": "STARLINK-35949", "group": "last-30-days", "lat": 51.210230873179405, "lon": -99.30978938683035, "alt_km": 418.76869130400246, "timestamp": "2025-12-20T14:38:00.687726+00:00", "meta": {"OBJECT_NAME": "STARLINK-35949", "OBJECT_ID": "2025-271P", "EPOCH": "2025-12-19T21:07:53.060736", "MEAN_MOTION": 15.46903837, "ECCENTRICITY": 0.0003221, "INCLINATION": 53.1593, "RA_OF_ASC_NODE": 153.0444, "ARG_OF_PERICENTER": 47.5604, "MEAN_ANOMALY": 312.5676, "EPHEMERIS_TYPE": 0, "CLASSIFICATION_TYPE": "U", "NORAD_CAT_ID": 66630, "ELEMENT_SET_NO": 999, "REV_AT_EPOCH": 531, "BSTAR": -0.005658, "MEAN_MOTION_DOT": -0.002797, "MEAN_MOTION_DDOT": 0}, "tle": {"line1": "1 66630U 25271P   25353.88047524 -.00279700  00000+0 -56580-2 0  9996", "line2": "2 66630  53.1593 153.0444 0003221  47.5604 312.5676 15.46903837  5319"}}, "geometry": {"type": "Point", "coordinates": [-99.30978938683035, 51.210230873179405]}}, {"type": "Feature", "properties": {"norad_id": 66631, "name": "STARLINK-35965", "group": "last-30-days", "lat": 51.40230614681332, "lon": -100.35450128394787, "alt_km": 422.2127675390457, "timestamp": "2025-12-20T14:38:00.687738+00:00", "meta": {"OBJECT_NAME": "STARLINK-35965", "OBJECT_ID": "2025-271Q", "EPOCH": "2025-12-20T06:00:02.999808", "MEAN_MOTION": 15.45510993, "ECCENTRICITY": 0.00012135, "INCLINATION": 53.1594, "RA_OF_ASC_NODE": 151.2829, "ARG_OF_PERICENTER": 58.492, "MEAN_ANOMALY": 201.3878, "EPHEMERIS_TYPE": 0, "CLASSIFICATION_TYPE": "U", "NORAD_CAT_ID": 66631, "ELEMENT_SET_NO": 999, "REV_AT_EPOCH": 545, "BSTAR": 0.0014228081, "MEAN_MOTION_DOT": 0.00069551, "MEAN_MOTION_DDOT": 0}, "tle": {"line1": "1 66631U 25271Q   25354.25003472  .00069551  00000+0  14228-2 0  9995", "line2": "2 66631  53.1594 151.2829 0001213  58.4920 201.3878 15.45510993  5459"}}, "geometry": {"type": "Point", "coordinates": [-100.35450128394787, 51.40230614681332]}}, {"type": "Feature", "properties": {"norad_id": 66632, "name": "STARLINK-35973", "group": "last-30-days", "lat": -52.817600741077136, "lon": 68.69817296241243, "alt_km": 452.4769019022151, "timestamp": "2025-12-20T14:38:00.687748+00:00", "meta": {"OBJECT_NAME": "STARLINK-35973", "OBJECT_ID": "2025-271R", "EPOCH": "2025-12-19T18:44:52.278432", "MEAN_MOTION": 15.39637359, "ECCENTRICITY": 9.834e-05, "INCLINATION": 53.1599, "RA_OF_ASC_NODE": 153.8489, "ARG_OF_PERICENTER": 75.4861, "MEAN_ANOMALY": 284.6253, "EPHEMERIS_TYPE": 0, "CLASSIFICATION_TYPE": "U", "NORAD_CAT_ID": 66632, "ELEMENT_SET_NO": 999, "REV_AT_EPOCH": 525, "BSTAR": 0.00082132207, "MEAN_MOTION_DOT": 0.00032612, "MEAN_MOTION_DDOT": 0}, "tle": {"line1": "1 66632U 25271R   25353.78116063  .00032612  00000+0  82132-3 0  9992", "line2": "2 66632  53.1599 153.8489 0000983  75.4861 284.6253 15.39637359  5259"}}, "geometry": {"type": "Point", "coordinates": [68.69817296241243, -52.817600741077136]}}]}